{
"type": "FeatureCollection",
"name": "land",
"crs": { "type": "name", "properties": { "name": "urn:ogc:def:crs:OGC:1.3:CRS84" } },
"features": [
{ "type": "Feature", "properties": { "land_id": "LAND001", "name": "Green Tower Rooftop", "land_type": "Rooftop", "current_usage": "Vacant", "area_sqft": 5000, "sunlight_hours": 8.0, "water_access": "High", "market_distance_km": 3.2 }, "geometry": { "type": "Point", "coordinates": [ 73.0, 18.0 ] } },
{ "type": "Feature", "properties": { "land_id": "LAND002", "name": "East Market Terrace", "land_type": "Rooftop", "current_usage": "Underutilized", "area_sqft": 4200, "sunlight_hours": 7.5, "water_access": "Medium", "market_distance_km": 1.8 }, "geometry": { "type": "Point", "coordinates": [ 73.0, 18.002 ] } },
{ "type": "Feature", "properties": { "land_id": "LAND003", "name": "Riverfront Vacant Plot", "land_type": "Plot", "current_usage": "Vacant", "area_sqft": 6500, "sunlight_hours": 8.2, "water_access": "High", "market_distance_km": 4.1 }, "geometry": { "type": "Point", "coordinates": [ 73.0, 18.004 ] } },
{ "type": "Feature", "properties": { "land_id": "LAND004", "name": "Sunrise Commercial Roof", "land_type": "Rooftop", "current_usage": "Vacant", "area_sqft": 3800, "sunlight_hours": 7.8, "water_access": "Medium", "market_distance_km": 2.5 }, "geometry": { "type": "Point", "coordinates": [ 73.0, 18.006 ] } },
{ "type": "Feature", "properties": { "land_id": "LAND005", "name": "Community Open Plot", "land_type": "Plot", "current_usage": "Vacant", "area_sqft": 7200, "sunlight_hours": 8.5, "water_access": "High", "market_distance_km": 5.0 }, "geometry": { "type": "Point", "coordinates": [ 73.0, 18.008 ] } },
{ "type": "Feature", "properties": { "land_id": "LAND006", "name": "Old Warehouse Roof", "land_type": "Rooftop", "current_usage": "Underutilized", "area_sqft": 4500, "sunlight_hours": 7.2, "water_access": "Low", "market_distance_km": 3.7 }, "geometry": { "type": "Point", "coordinates": [ 73.002, 18.0 ] } },
{ "type": "Feature", "properties": { "land_id": "LAND007", "name": "Greenfield Vacant Plot", "land_type": "Plot", "current_usage": "Vacant", "area_sqft": 8500, "sunlight_hours": 8.7, "water_access": "High", "market_distance_km": 5.4 }, "geometry": { "type": "Point", "coordinates": [ 73.002, 18.002 ] } },
{ "type": "Feature", "properties": { "land_id": "LAND008", "name": "Metro Terrace", "land_type": "Rooftop", "current_usage": "Underutilized", "area_sqft": 3500, "sunlight_hours": 6.9, "water_access": "Medium", "market_distance_km": 2.1 }, "geometry": { "type": "Point", "coordinates": [ 73.002, 18.004 ] } },
{ "type": "Feature", "properties": { "land_id": "LAND009", "name": "Lakeside Open Plot", "land_type": "Plot", "current_usage": "Vacant", "area_sqft": 6000, "sunlight_hours": 8.3, "water_access": "High", "market_distance_km": 4.6 }, "geometry": { "type": "Point", "coordinates": [ 73.002, 18.006 ] } },
{ "type": "Feature", "properties": { "land_id": "LAND010", "name": "City Mall Rooftop", "land_type": "Rooftop", "current_usage": "Underutilized", "area_sqft": 5500, "sunlight_hours": 7.1, "water_access": "Medium", "market_distance_km": 1.5 }, "geometry": { "type": "Point", "coordinates": [ 73.002, 18.008 ] } },
{ "type": "Feature", "properties": { "land_id": "LAND011", "name": "Industrial Vacant Plot", "land_type": "Plot", "current_usage": "Vacant", "area_sqft": 9000, "sunlight_hours": 7.9, "water_access": "Low", "market_distance_km": 6.2 }, "geometry": { "type": "Point", "coordinates": [ 73.004, 18.0 ] } },
{ "type": "Feature", "properties": { "land_id": "LAND012", "name": "Sunrise Apartment Roof", "land_type": "Rooftop", "current_usage": "Vacant", "area_sqft": 3000, "sunlight_hours": 7.7, "water_access": "High", "market_distance_km": 2.8 }, "geometry": { "type": "Point", "coordinates": [ 73.004, 18.002 ] } },
{ "type": "Feature", "properties": { "land_id": "LAND013", "name": "Community Garden Plot", "land_type": "Plot", "current_usage": "Existing Garden", "area_sqft": 4800, "sunlight_hours": 7.6, "water_access": "High", "market_distance_km": 3.0 }, "geometry": { "type": "Point", "coordinates": [ 73.004, 18.004 ] } },
{ "type": "Feature", "properties": { "land_id": "LAND014", "name": "Highway Side Vacant Plot", "land_type": "Plot", "current_usage": "Vacant", "area_sqft": 7600, "sunlight_hours": 8.1, "water_access": "Low", "market_distance_km": 6.8 }, "geometry": { "type": "Point", "coordinates": [ 73.004, 18.006 ] } },
{ "type": "Feature", "properties": { "land_id": "LAND015", "name": "Market Warehouse Roof", "land_type": "Rooftop", "current_usage": "Underutilized", "area_sqft": 4000, "sunlight_hours": 7.4, "water_access": "Medium", "market_distance_km": 1.2 }, "geometry": { "type": "Point", "coordinates": [ 73.004, 18.008 ] } }
]
}
